STARLETTE               
1 07646U 75010A   26065.58057958 -.00000126  00000+0  15520-4 0  9998
2 07646  49.8226 149.6029 0205562  84.0754 278.3527 13.82349077580343
LAGEOS 1                
1 08820U 76039A   26065.36253940 -.00000005  00000+0  00000+0 0  9998
2 08820 109.8179 144.1429 0044660 324.2984  62.3521  6.38664890906578
AJISAI (EGS)            
1 16908U 86061A   26065.82008584 -.00000086  00000+0  76322-4 0  9997
2 16908  50.0080 102.1721 0011257 279.6279 130.1698 12.44515636467643
COSMOS 1989 (ETALON 1)  
1 19751U 89001C   26065.62096231 -.00000001  00000+0  00000+0 0  9999
2 19751  64.8856  75.7019 0023416 217.5756 242.2717  2.13156097289187
COSMOS 2024 (ETALON 2)  
1 20026U 89039C   26065.48516983 -.00000055  00000+0  00000+0 0  9991
2 20026  64.9963 314.0759 0020466 213.3998 282.0420  2.13204610286318
LAGEOS 2                
1 22195U 92070B   26065.52897360 -.00000009  00000+0  00000+0 0  9994
2 22195  52.6791 331.5402 0137767 142.4403  82.1122  6.47293334788772
STELLA                  
1 22824U 93061B   26065.85511118 -.00000006  00000+0  15783-4 0  9990
2 22824  98.7847 129.6871 0006578 165.4878 255.9960 14.27467516690174
LARETS                  
1 27944U 03042F   26065.79097727  .00000124  00000+0  33403-4 0  9995
2 27944  98.4011 225.9145 0012252   1.6557 358.4683 14.63847763198380
LARES                   
1 38077U 12006A   26065.87413769 -.00000036  00000+0  14248-4 0  9990
2 38077  69.4879 107.0086 0007464 153.3221 206.8190 12.54932188644238
LARES-2                 
1 53105U 22080A   26065.02398958 -.00000028  00000+0  00000+0 0  9998
2 53105  70.1755 340.7064 0005309 356.7815   3.2821  6.38965015 85076
