[{"OBJECT_NAME":"STARLETTE","OBJECT_ID":"1975-010A","EPOCH":"2026-03-06T13:56:02.075712","MEAN_MOTION":13.82349077,"ECCENTRICITY":0.02055628,"INCLINATION":49.8226,"RA_OF_ASC_NODE":149.6029,"ARG_OF_PERICENTER":84.0754,"MEAN_ANOMALY":278.3527,"EPHEMERIS_TYPE":0,"CLASSIFICATION_TYPE":"U","NORAD_CAT_ID":7646,"ELEMENT_SET_NO":999,"REV_AT_EPOCH":58034,"BSTAR":1.55196e-5,"MEAN_MOTION_DOT":-1.26e-6,"MEAN_MOTION_DDOT":0},{"OBJECT_NAME":"LAGEOS 1","OBJECT_ID":"1976-039A","EPOCH":"2026-03-06T08:42:03.404160","MEAN_MOTION":6.3866489,"ECCENTRICITY":0.00446609,"INCLINATION":109.8179,"RA_OF_ASC_NODE":144.1429,"ARG_OF_PERICENTER":324.2984,"MEAN_ANOMALY":62.3521,"EPHEMERIS_TYPE":0,"CLASSIFICATION_TYPE":"U","NORAD_CAT_ID":8820,"ELEMENT_SET_NO":999,"REV_AT_EPOCH":90657,"BSTAR":0,"MEAN_MOTION_DOT":-5.0e-8,"MEAN_MOTION_DDOT":0},{"OBJECT_NAME":"AJISAI (EGS)","OBJECT_ID":"1986-061A","EPOCH":"2026-03-06T19:40:55.416576","MEAN_MOTION":12.44515636,"ECCENTRICITY":0.0011257,"INCLINATION":50.008,"RA_OF_ASC_NODE":102.1721,"ARG_OF_PERICENTER":279.6279,"MEAN_ANOMALY":130.1698,"EPHEMERIS_TYPE":0,"CLASSIFICATION_TYPE":"U","NORAD_CAT_ID":16908,"ELEMENT_SET_NO":999,"REV_AT_EPOCH":46764,"BSTAR":7.6322e-5,"MEAN_MOTION_DOT":-8.6e-7,"MEAN_MOTION_DDOT":0},{"OBJECT_NAME":"COSMOS 1989 (ETALON 1)","OBJECT_ID":"1989-001C","EPOCH":"2026-03-06T14:54:11.143584","MEAN_MOTION":2.13156097,"ECCENTRICITY":0.00234164,"INCLINATION":64.8856,"RA_OF_ASC_NODE":75.7019,"ARG_OF_PERICENTER":217.5756,"MEAN_ANOMALY":242.2717,"EPHEMERIS_TYPE":0,"CLASSIFICATION_TYPE":"U","NORAD_CAT_ID":19751,"ELEMENT_SET_NO":999,"REV_AT_EPOCH":28918,"BSTAR":0,"MEAN_MOTION_DOT":-1.0e-8,"MEAN_MOTION_DDOT":0},{"OBJECT_NAME":"COSMOS 2024 (ETALON 2)","OBJECT_ID":"1989-039C","EPOCH":"2026-03-06T11:38:38.673312","MEAN_MOTION":2.1320461,"ECCENTRICITY":0.00204668,"INCLINATION":64.9963,"RA_OF_ASC_NODE":314.0759,"ARG_OF_PERICENTER":213.3998,"MEAN_ANOMALY":282.042,"EPHEMERIS_TYPE":0,"CLASSIFICATION_TYPE":"U","NORAD_CAT_ID":20026,"ELEMENT_SET_NO":999,"REV_AT_EPOCH":28631,"BSTAR":0,"MEAN_MOTION_DOT":-5.5e-7,"MEAN_MOTION_DDOT":0},{"OBJECT_NAME":"LAGEOS 2","OBJECT_ID":"1992-070B","EPOCH":"2026-03-06T12:41:43.319040","MEAN_MOTION":6.47293334,"ECCENTRICITY":0.0137767,"INCLINATION":52.6791,"RA_OF_ASC_NODE":331.5402,"ARG_OF_PERICENTER":142.4403,"MEAN_ANOMALY":82.1122,"EPHEMERIS_TYPE":0,"CLASSIFICATION_TYPE":"U","NORAD_CAT_ID":22195,"ELEMENT_SET_NO":999,"REV_AT_EPOCH":78877,"BSTAR":0,"MEAN_MOTION_DOT":-9.0e-8,"MEAN_MOTION_DDOT":0},{"OBJECT_NAME":"STELLA","OBJECT_ID":"1993-061B","EPOCH":"2026-03-06T20:31:21.605952","MEAN_MOTION":14.27467516,"ECCENTRICITY":0.0006578,"INCLINATION":98.7847,"RA_OF_ASC_NODE":129.6871,"ARG_OF_PERICENTER":165.4878,"MEAN_ANOMALY":255.996,"EPHEMERIS_TYPE":0,"CLASSIFICATION_TYPE":"U","NORAD_CAT_ID":22824,"ELEMENT_SET_NO":999,"REV_AT_EPOCH":69017,"BSTAR":1.5783e-5,"MEAN_MOTION_DOT":-6.0e-8,"MEAN_MOTION_DDOT":0},{"OBJECT_NAME":"LARETS","OBJECT_ID":"2003-042F","EPOCH":"2026-03-06T18:59:00.436128","MEAN_MOTION":14.63847763,"ECCENTRICITY":0.0012252,"INCLINATION":98.4011,"RA_OF_ASC_NODE":225.9145,"ARG_OF_PERICENTER":1.6557,"MEAN_ANOMALY":358.4683,"EPHEMERIS_TYPE":0,"CLASSIFICATION_TYPE":"U","NORAD_CAT_ID":27944,"ELEMENT_SET_NO":999,"REV_AT_EPOCH":19838,"BSTAR":3.3403e-5,"MEAN_MOTION_DOT":1.24e-6,"MEAN_MOTION_DDOT":0},{"OBJECT_NAME":"LARES","OBJECT_ID":"2012-006A","EPOCH":"2026-03-06T20:58:45.496416","MEAN_MOTION":12.54932188,"ECCENTRICITY":0.0007464,"INCLINATION":69.4879,"RA_OF_ASC_NODE":107.0086,"ARG_OF_PERICENTER":153.3221,"MEAN_ANOMALY":206.819,"EPHEMERIS_TYPE":0,"CLASSIFICATION_TYPE":"U","NORAD_CAT_ID":38077,"ELEMENT_SET_NO":999,"REV_AT_EPOCH":64423,"BSTAR":1.4248e-5,"MEAN_MOTION_DOT":-3.6e-7,"MEAN_MOTION_DDOT":0},{"OBJECT_NAME":"LARES-2","OBJECT_ID":"2022-080A","EPOCH":"2026-03-06T00:34:32.699712","MEAN_MOTION":6.38965015,"ECCENTRICITY":0.00053097,"INCLINATION":70.1755,"RA_OF_ASC_NODE":340.7064,"ARG_OF_PERICENTER":356.7815,"MEAN_ANOMALY":3.2821,"EPHEMERIS_TYPE":0,"CLASSIFICATION_TYPE":"U","NORAD_CAT_ID":53105,"ELEMENT_SET_NO":999,"REV_AT_EPOCH":8507,"BSTAR":0,"MEAN_MOTION_DOT":-2.8e-7,"MEAN_MOTION_DDOT":0}]
